IRIDIUM 106             
1 41917U 17003A   25016.73868282  .00000203  00000+0  65305-4 0  9998
2 41917  86.3984 304.3410 0002293  93.5190 266.6268 14.34217272419182
IRIDIUM 103             
1 41918U 17003B   25016.72599444  .00000531  00000+0  18236-3 0  9993
2 41918  86.3984 304.2476 0001582  92.1129 268.0248 14.34222968419206
IRIDIUM 109             
1 41919U 17003C   25016.52303520  .00000162  00000+0  50881-4 0  9993
2 41919  86.3985 304.3832 0002084  79.2037 280.9394 14.34218328419140
IRIDIUM 102             
1 41920U 17003D   25016.77039523  .00000191  00000+0  61175-4 0  9991
2 41920  86.3982 304.2147 0002227  82.8610 277.2839 14.34213057419263
IRIDIUM 105             
1 41921U 17003E   25016.46206010  .00000503  00000+0  17264-3 0  9991
2 41921  86.3960 272.7640 0002002  86.8461 273.2963 14.34220967421070
IRIDIUM 104             
1 41922U 17003F   25016.78307734 -.00000300  00000+0 -11411-3 0  9997
2 41922  86.3981 304.2441 0001734  69.2731 290.8650 14.34216026419256
IRIDIUM 114             
1 41923U 17003G   25016.71964706  .00000531  00000+0  18258-3 0  9999
2 41923  86.3985 304.2556 0001970  87.5386 272.6036 14.34222787419223
IRIDIUM 108             
1 41924U 17003H   25016.67817726  .00000056  00000+0  12985-4 0  9998
2 41924  86.3955 272.5848 0002206  90.0355 270.1094 14.34217746421072
